CCSDS_OMM_VERS = 2.0
CREATION_DATE  = 
ORIGINATOR     = 

OBJECT_NAME    = PROGRESS-MS 32
OBJECT_ID      = 2025-204A
CENTER_NAME    = EARTH
REF_FRAME      = TEME
TIME_SYSTEM    = UTC
MEAN_ELEMENT_THEORY = SGP/SGP4

EPOCH          = 2025-11-04T03:56:45.386016
MEAN_MOTION    = 15.49739341
ECCENTRICITY   = .00050356
INCLINATION    = 51.6336
RA_OF_ASC_NODE = 333.4485
ARG_OF_PERICENTER = 15.3367
MEAN_ANOMALY   = 344.7773

EPHEMERIS_TYPE = 0
CLASSIFICATION_TYPE = U
NORAD_CAT_ID   = 65586
ELEMENT_SET_NO = 999
REV_AT_EPOCH   = 27
BSTAR          = .19921566E-3
MEAN_MOTION_DOT = .10829E-3
MEAN_MOTION_DDOT = 0

CCSDS_OMM_VERS = 2.0
CREATION_DATE  = 
ORIGINATOR     = 

OBJECT_NAME    = CYGNUS NG-23
OBJECT_ID      = 2025-208A
CENTER_NAME    = EARTH
REF_FRAME      = TEME
TIME_SYSTEM    = UTC
MEAN_ELEMENT_THEORY = SGP/SGP4

EPOCH          = 2025-11-04T03:56:45.386016
MEAN_MOTION    = 15.49739341
ECCENTRICITY   = .00050356
INCLINATION    = 51.6336
RA_OF_ASC_NODE = 333.4485
ARG_OF_PERICENTER = 15.3367
MEAN_ANOMALY   = 344.7773

EPHEMERIS_TYPE = 0
CLASSIFICATION_TYPE = U
NORAD_CAT_ID   = 65616
ELEMENT_SET_NO = 999
REV_AT_EPOCH   = 22
BSTAR          = .19921566E-3
MEAN_MOTION_DOT = .10829E-3
MEAN_MOTION_DDOT = 0

CCSDS_OMM_VERS = 2.0
CREATION_DATE  = 
ORIGINATOR     = 

OBJECT_NAME    = DRAGONFLY
OBJECT_ID      = 1998-067XH
CENTER_NAME    = EARTH
REF_FRAME      = TEME
TIME_SYSTEM    = UTC
MEAN_ELEMENT_THEORY = SGP/SGP4

EPOCH          = 2025-11-03T08:27:23.019264
MEAN_MOTION    = 15.60005687
ECCENTRICITY   = .00036311
INCLINATION    = 51.6315
RA_OF_ASC_NODE = 335.5297
ARG_OF_PERICENTER = 71.0285
MEAN_ANOMALY   = 289.1102

EPHEMERIS_TYPE = 0
CLASSIFICATION_TYPE = U
NORAD_CAT_ID   = 65729
ELEMENT_SET_NO = 999
REV_AT_EPOCH   = 699
BSTAR          = .10812497E-2
MEAN_MOTION_DOT = .89643E-3
MEAN_MOTION_DDOT = 0

CCSDS_OMM_VERS = 2.0
CREATION_DATE  = 
ORIGINATOR     = 

OBJECT_NAME    = 1998-067XJ
OBJECT_ID      = 1998-067XJ
CENTER_NAME    = EARTH
REF_FRAME      = TEME
TIME_SYSTEM    = UTC
MEAN_ELEMENT_THEORY = SGP/SGP4

EPOCH          = 2025-11-04T11:01:02.796096
MEAN_MOTION    = 15.69488856
ECCENTRICITY   = .0011122
INCLINATION    = 51.6285
RA_OF_ASC_NODE = 328.6616
ARG_OF_PERICENTER = 56.8012
MEAN_ANOMALY   = 303.4050

EPHEMERIS_TYPE = 0
CLASSIFICATION_TYPE = U
NORAD_CAT_ID   = 65730
ELEMENT_SET_NO = 999
REV_AT_EPOCH   = 718
BSTAR          = .21415E-2
MEAN_MOTION_DOT = .266038E-2
MEAN_MOTION_DDOT = 0

CCSDS_OMM_VERS = 2.0
CREATION_DATE  = 
ORIGINATOR     = 

OBJECT_NAME    = 1998-067XK
OBJECT_ID      = 1998-067XK
CENTER_NAME    = EARTH
REF_FRAME      = TEME
TIME_SYSTEM    = UTC
MEAN_ELEMENT_THEORY = SGP/SGP4

EPOCH          = 2025-11-04T11:16:11.525376
MEAN_MOTION    = 15.58077859
ECCENTRICITY   = .0005095
INCLINATION    = 51.6321
RA_OF_ASC_NODE = 330.2412
ARG_OF_PERICENTER = 54.3630
MEAN_ANOMALY   = 305.7837

EPHEMERIS_TYPE = 0
CLASSIFICATION_TYPE = U
NORAD_CAT_ID   = 65731
ELEMENT_SET_NO = 999
REV_AT_EPOCH   = 716
BSTAR          = .85492E-3
MEAN_MOTION_DOT = .65577E-3
MEAN_MOTION_DDOT = 0

CCSDS_OMM_VERS = 2.0
CREATION_DATE  = 
ORIGINATOR     = 

OBJECT_NAME    = RSP-03
OBJECT_ID      = 1998-067XL
CENTER_NAME    = EARTH
REF_FRAME      = TEME
TIME_SYSTEM    = UTC
MEAN_ELEMENT_THEORY = SGP/SGP4

EPOCH          = 2025-11-04T07:51:40.876416
MEAN_MOTION    = 15.59100954
ECCENTRICITY   = .0005909
INCLINATION    = 51.6309
RA_OF_ASC_NODE = 330.7921
ARG_OF_PERICENTER = 54.9153
MEAN_ANOMALY   = 305.2393

EPHEMERIS_TYPE = 0
CLASSIFICATION_TYPE = U
NORAD_CAT_ID   = 65732
ELEMENT_SET_NO = 999
REV_AT_EPOCH   = 715
BSTAR          = .98401E-3
MEAN_MOTION_DOT = .7869E-3
MEAN_MOTION_DDOT = 0

CCSDS_OMM_VERS = 2.0
CREATION_DATE  = 
ORIGINATOR     = 

OBJECT_NAME    = GHS-01
OBJECT_ID      = 1998-067XM
CENTER_NAME    = EARTH
REF_FRAME      = TEME
TIME_SYSTEM    = UTC
MEAN_ELEMENT_THEORY = SGP/SGP4

EPOCH          = 2025-11-04T07:17:14.030304
MEAN_MOTION    = 15.60965600
ECCENTRICITY   = .0004187
INCLINATION    = 51.6324
RA_OF_ASC_NODE = 330.6344
ARG_OF_PERICENTER = 71.8718
MEAN_ANOMALY   = 288.2732

EPHEMERIS_TYPE = 0
CLASSIFICATION_TYPE = U
NORAD_CAT_ID   = 65733
ELEMENT_SET_NO = 999
REV_AT_EPOCH   = 715
BSTAR          = .12127E-2
MEAN_MOTION_DOT = .104594E-2
MEAN_MOTION_DDOT = 0

CCSDS_OMM_VERS = 2.0
CREATION_DATE  = 
ORIGINATOR     = 

OBJECT_NAME    = YOTSUBA-KULOVER
OBJECT_ID      = 1998-067XN
CENTER_NAME    = EARTH
REF_FRAME      = TEME
TIME_SYSTEM    = UTC
MEAN_ELEMENT_THEORY = SGP/SGP4

EPOCH          = 2025-11-03T19:16:08.836320
MEAN_MOTION    = 15.53493482
ECCENTRICITY   = .00026455
INCLINATION    = 51.6325
RA_OF_ASC_NODE = 334.7856
ARG_OF_PERICENTER = 1.5585
MEAN_ANOMALY   = 358.5413

EPHEMERIS_TYPE = 0
CLASSIFICATION_TYPE = U
NORAD_CAT_ID   = 65941
ELEMENT_SET_NO = 999
REV_AT_EPOCH   = 379
BSTAR          = .85063962E-3
MEAN_MOTION_DOT = .54932E-3
MEAN_MOTION_DDOT = 0

CCSDS_OMM_VERS = 2.0
CREATION_DATE  = 
ORIGINATOR     = 

OBJECT_NAME    = BOTAN
OBJECT_ID      = 1998-067XP
CENTER_NAME    = EARTH
REF_FRAME      = TEME
TIME_SYSTEM    = UTC
MEAN_ELEMENT_THEORY = SGP/SGP4

EPOCH          = 2025-11-03T19:05:41.632800
MEAN_MOTION    = 15.54427286
ECCENTRICITY   = .0004805
INCLINATION    = 51.6325
RA_OF_ASC_NODE = 334.7378
ARG_OF_PERICENTER = 16.4520
MEAN_ANOMALY   = 343.6625

EPHEMERIS_TYPE = 0
CLASSIFICATION_TYPE = U
NORAD_CAT_ID   = 65942
ELEMENT_SET_NO = 999
REV_AT_EPOCH   = 379
BSTAR          = .11037768E-2
MEAN_MOTION_DOT = .74105E-3
MEAN_MOTION_DDOT = 0

CCSDS_OMM_VERS = 2.0
CREATION_DATE  = 
ORIGINATOR     = 

OBJECT_NAME    = E-KAGAKU-1
OBJECT_ID      = 1998-067XQ
CENTER_NAME    = EARTH
REF_FRAME      = TEME
TIME_SYSTEM    = UTC
MEAN_ELEMENT_THEORY = SGP/SGP4

EPOCH          = 2025-11-03T08:27:04.684320
MEAN_MOTION    = 15.53447140
ECCENTRICITY   = .00044757
INCLINATION    = 51.6338
RA_OF_ASC_NODE = 337.0259
ARG_OF_PERICENTER = 1.7618
MEAN_ANOMALY   = 358.3388

EPHEMERIS_TYPE = 0
CLASSIFICATION_TYPE = U
NORAD_CAT_ID   = 65943
ELEMENT_SET_NO = 999
REV_AT_EPOCH   = 372
BSTAR          = .76994813E-3
MEAN_MOTION_DOT = .49569E-3
MEAN_MOTION_DDOT = 0

CCSDS_OMM_VERS = 2.0
CREATION_DATE  = 
ORIGINATOR     = 

OBJECT_NAME    = HTV-X1
OBJECT_ID      = 2025-241A
CENTER_NAME    = EARTH
REF_FRAME      = TEME
TIME_SYSTEM    = UTC
MEAN_ELEMENT_THEORY = SGP/SGP4

EPOCH          = 2025-11-04T03:56:45.386016
MEAN_MOTION    = 15.49739341
ECCENTRICITY   = .00050356
INCLINATION    = 51.6336
RA_OF_ASC_NODE = 333.4485
ARG_OF_PERICENTER = 15.3367
MEAN_ANOMALY   = 344.7773

EPHEMERIS_TYPE = 0
CLASSIFICATION_TYPE = U
NORAD_CAT_ID   = 66174
ELEMENT_SET_NO = 999
REV_AT_EPOCH   = 139
BSTAR          = .19921566E-3
MEAN_MOTION_DOT = .10829E-3
MEAN_MOTION_DDOT = 0

